NUSAT-49 (KLARA DAN VO*)
1 60500U 24149AJ  26068.79810190  .00012912  00000+0  43568-3 0  9991
2 60500  97.3807 150.7380 0001132 286.7761  73.3356 15.30828857 86935
STARLINK-35252          
1 65850U 25221AD  26068.46904385  .00028065  00000+0  95606-3 0  9996
2 65850  53.1590  89.7889 0001337  73.5171 286.5976 15.30201430 26040
